[{"OBJECT_NAME":"STARLINK-4134","OBJECT_ID":"2022-086N","EPOCH":"2026-03-09T15:22:33.570048","MEAN_MOTION":15.08840197,"ECCENTRICITY":0.0001196,"INCLINATION":53.2174,"RA_OF_ASC_NODE":194.3497,"ARG_OF_PERICENTER":94.7121,"MEAN_ANOMALY":265.4008,"EPHEMERIS_TYPE":0,"CLASSIFICATION_TYPE":"U","NORAD_CAT_ID":53254,"ELEMENT_SET_NO":999,"REV_AT_EPOCH":20107,"BSTAR":6.7532e-6,"MEAN_MOTION_DOT":-1.8e-6,"MEAN_MOTION_DDOT":0},{"OBJECT_NAME":"YUNYAO-1 45","OBJECT_ID":"2025-059C","EPOCH":"2026-03-09T23:25:14.115648","MEAN_MOTION":15.10348188,"ECCENTRICITY":0.00171316,"INCLINATION":97.6099,"RA_OF_ASC_NODE":251.0366,"ARG_OF_PERICENTER":134.7318,"MEAN_ANOMALY":225.5309,"EPHEMERIS_TYPE":0,"CLASSIFICATION_TYPE":"U","NORAD_CAT_ID":63346,"ELEMENT_SET_NO":999,"REV_AT_EPOCH":5332,"BSTAR":0.00033512738,"MEAN_MOTION_DOT":5.451e-5,"MEAN_MOTION_DDOT":0}]
